{"12054680":{"lat":-33.8920603,"lon":151.1996171,"tags":{"crossing":"traffic_signals","highway":"crossing"}},"13887497":{"lat":-33.8805897,"lon":151.2168616,"tags":{"bicycle":"yes","crossing":"traffic_signals","crossing_ref":"toucan","highway":"crossing"}},"14750589":{"lat":-33.9044108,"lon":151.193462,"tags":{"bicycle":"designated","crossing":"toucan","source":"visual inspection"}},"15405025":{"lat":-33.8675759,"lon":151.2084752,"tags":{}},"15405030":{"lat":-33.8677821,"lon":151.2105716,"tags":{}},"19160807":{"lat":-33.8149993,"lon":151.0028077,"tags":{"highway":"traffic_signals","traffic_signals:direction":"forward"}},"20636266":{"lat":-33.8957436,"lon":151.2238818,"tags":{"ref":"3599","start_date":"1999-11-01"}},"20930147":{"lat":-33.8735126,"lon":151.2113604,"tags":{"button_operated":"yes","crossing":"traffic_signals","crossing:island":"no","highway":"crossing","tactile_paving":"yes","traffic_signals:sound":"yes","traffic_signals:vibration":"yes"}},"29377084":{"lat":-33.9194257,"lon":151.226406,"tags":{"highway":"traffic_signals"}},"41848673":{"lat":-33.9172904,"lon":151.2259682,"tags":{"button_operated":"yes","crossing":"traffic_signals","highway":"traffic_signals","tactile_paving":"yes","traffic_signals:direction":"forward","traffic_signals:sound":"yes","traffic_signals:vibration":"yes"}},"52028404":{"lat":-33.8194191,"lon":151.0074806,"tags":{"highway":"traffic_signals"}},"81257348":{"lat":-33.8369342,"lon":150.9918306,"tags":{"crossing":"traffic_signals","highway":"crossing"}},"82081112":{"lat":-27.3825942,"lon":153.0640013,"tags":{"crossing":"traffic_signals","highway":"crossing"}},"84414886":{"lat":-33.9255678,"lon":151.2225621,"tags":{"crossing":"traffic_signals","highway":"crossing"}},"140925416":{"lat":-33.7630626,"lon":151.2799398,"tags":{"highway":"traffic_signals","ref":"1603","start_date":"1981-04-23"}},"163200142":{"lat":-33.8729775,"lon":151.0942583,"tags":{"fixme":"is this a scramble crossing?","highway":"traffic_signals","ref":"1962"}},"176835402":{"lat":-33.7724081,"lon":151.0823427,"tags":{"button_operated":"yes","crossing":"traffic_signals","crossing_ref":"zebra","highway":"crossing","tactile_paving":"yes","traffic_signals:sound":"yes"}},"189758311":{"lat":-33.9102355,"lon":151.195634,"tags":{"highway":"traffic_signals"}},"190036112":{"lat":-33.9010605,"lon":151.202955,"tags":{"bicycle":"designated","crossing":"traffic_signals","highway":"crossing","horse":"designated"}},"245918080":{"lat":-33.9172028,"lon":151.2261089,"tags":{"button_operated":"yes","crossing":"traffic_signals","highway":"traffic_signals","tactile_paving":"yes","traffic_signals:direction":"forward","traffic_signals:sound":"yes","traffic_signals:vibration":"yes"}},"262105012":{"lat":-33.8953578,"lon":151.2215272,"tags":{"bicycle":"designated","crossing":"traffic_signals","highway":"crossing"}},"266132245":{"lat":-33.8949253,"lon":151.1992029,"tags":{"button_operated":"yes","check_date:tactile_paving":"2022-10-08","crossing":"traffic_signals","highway":"crossing","kerb":"flush","ramp":"both","ramp:stroller":"yes","ramp:wheelchair":"yes","ramp:width":"1","ref":"2751","source":"survey","source:ref":"survey","tactile_paving":"no","traffic_signals:haptic":"yes","traffic_signals:sound":"yes","traffic_signals:vibration":"yes"}},"311437575":{"lat":-33.8938589,"lon":151.2167735,"tags":{"crossing":"traffic_signals","crossing_ref":"toucan","highway":"crossing"}},"431093203":{"lat":-33.8770437,"lon":151.2446784,"tags":{"highway":"traffic_signals","traffic_signals":"signal","traffic_signals:direction":"forward"}},"576277099":{"lat":-33.8837186,"lon":151.2037538,"tags":{"button_operated":"yes","crossing":"traffic_signals","crossing:island":"no","highway":"crossing","ref":"0252","start_date":"1998-05-05","traffic_signals:countdown_green":"yes"}},"610196239":{"lat":-33.8064071,"lon":150.9880916,"tags":{"crossing":"traffic_signals","highway":"crossing"}},"666749489":{"lat":-33.840606,"lon":151.2084025,"tags":{"button_operated":"yes","crossing":"traffic_signals","highway":"crossing","tactile_paving":"no"}},"671952469":{"lat":-33.9046932,"lon":151.2043872,"tags":{"bicycle":"yes","button_operated":"yes","crossing":"traffic_signals","traffic_signals:sound":"yes"}},"770696407":{"lat":-33.8911435,"lon":151.2533965,"tags":{"button_operated":"yes","crossing":"traffic_signals","highway":"crossing","supervised":"no","tactile_paving":"no","traffic_signals:sound":"yes","traffic_signals:vibration":"yes"}},"777402563":{"lat":-33.8764232,"lon":151.2299855,"tags":{"button_operated":"yes","crossing":"traffic_signals","highway":"crossing","traffic_signals:sound":"yes"}},"854385230":{"lat":-33.8938383,"lon":151.2163762,"tags":{"crossing":"traffic_signals","crossing_ref":"pelican","highway":"crossing"}},"870322751":{"lat":-35.2480869,"lon":149.1339635,"tags":{"button_operated":"yes","crossing":"traffic_signals","highway":"crossing","tactile_paving":"yes","traffic_signals:sound":"yes"}},"873702686":{"lat":-35.2482937,"lon":149.1343808,"tags":{"button_operated":"yes","crossing":"traffic_signals","highway":"traffic_signals","tactile_paving":"yes","traffic_signals:sound":"yes"}},"960870167":{"lat":-33.8768894,"lon":151.2119238,"tags":{"bicycle":"yes","crossing":"traffic_signals","crossing_ref":"toucan","highway":"crossing"}},"960870180":{"lat":-33.8736901,"lon":151.212767,"tags":{"button_operated":"yes","crossing":"traffic_signals","highway":"crossing","tactile_paving":"yes","traffic_signals:sound":"yes","traffic_signals:vibration":"yes"}},"1146696886":{"lat":-33.9286292,"lon":151.1873464,"tags":{"crossing":"traffic_signals","highway":"crossing"}},"1157987739":{"lat":-33.8745403,"lon":151.2179683,"tags":{"crossing":"traffic_signals","highway":"crossing"}},"1319751020":{"lat":-33.8861035,"lon":151.2178542,"tags":{"bicycle":"dismount","crossing":"traffic_signals","foot":"yes","highway":"crossing"}},"1319751026":{"lat":-33.8867978,"lon":151.2190077,"tags":{"crossing":"traffic_signals","highway":"crossing","tactile_paving":"no"}},"1532633053":{"lat":-33.8974762,"lon":151.1954394,"tags":{"crossing":"traffic_signals","highway":"crossing"}},"1638696009":{"lat":-34.0429442,"lon":151.1216995,"tags":{"crossing":"yes","crossing_ref":"pelican","highway":"traffic_signals","traffic_signals:direction":"forward"}},"1666748037":{"lat":-33.875249,"lon":151.0670945,"tags":{"button_operated":"yes","crossing":"traffic_signals","highway":"crossing"}},"1757844902":{"lat":-33.8637645,"lon":151.170196,"tags":{"bicycle":"yes","button_operated":"yes","crossing":"traffic_signals","crossing:island":"no","highway":"crossing","tactile_paving":"yes","traffic_signals:sound":"yes","traffic_signals:vibration":"yes"}},"1769017639":{"lat":-33.8668417,"lon":151.1754125,"tags":{"bicycle":"yes","button_operated":"yes","crossing":"traffic_signals","crossing:island":"no","foot":"yes","highway":"crossing","tactile_paving":"no","traffic_signals:sound":"yes","traffic_signals:vibration":"yes"}},"1782045216":{"lat":-33.9058368,"lon":151.1353686,"tags":{"crossing":"traffic_signals","highway":"crossing","ref":"1932","start_date":"1957-03-25"}},"1800088617":{"lat":-33.8767685,"lon":151.2121779,"tags":{"bicycle":"yes","crossing":"traffic_signals","crossing_ref":"toucan","highway":"crossing"}},"1810689316":{"lat":-33.8862636,"lon":151.1791202,"tags":{}},"1810708078":{"lat":-33.8828903,"lon":151.2039558,"tags":{"button_operated":"yes","check_date:traffic_signals:sound":"2023-08-21","crossing":"traffic_signals","highway":"crossing","tactile_paving":"yes","traffic_signals:sound":"yes","traffic_signals:vibration":"yes"}},"1815346029":{"lat":-33.7601982,"lon":151.2781866,"tags":{"highway":"traffic_signals","source":"knowledge","traffic_signals:direction":"forward"}},"1817320817":{"lat":-33.8743824,"lon":151.1647874,"tags":{"crossing":"traffic_signals","highway":"crossing"}},"1833330993":{"lat":-33.8921527,"lon":151.2170468,"tags":{"crossing":"traffic_signals","crossing_ref":"pelican","highway":"crossing"}},"1839949371":{"lat":-34.9281144,"lon":138.6118263,"tags":{"button_operated":"yes","crossing":"traffic_signals","highway":"crossing","tactile_paving":"yes","traffic_signals:sound":"yes","traffic_signals:vibration":"yes"}},"1840724121":{"lat":-34.0185557,"lon":151.0281017,"tags":{"highway":"traffic_signals"}},"1843479420":{"lat":-33.8947196,"lon":151.1641633,"tags":{"button_operated":"yes","crossing":"traffic_signals","crossing:island":"no","highway":"crossing","ref":"1913","start_date":"1956-12-03","tactile_paving":"yes","traffic_signals":"signal","traffic_signals:sound":"yes"}},"1844090423":{"lat":-33.8940459,"lon":151.1575299,"tags":{"crossing":"traffic_signals","highway":"crossing"}},"1845011913":{"lat":-33.8867408,"lon":151.2202336,"tags":{"bicycle":"designated","highway":"traffic_signals","traffic_signals:direction":"forward"}},"1845298891":{"lat":-34.9257678,"lon":138.5996374,"tags":{"highway":"traffic_signals"}},"1850061344":{"lat":-33.897031,"lon":151.2130439,"tags":{"bicycle":"designated","crossing":"traffic_signals","highway":"crossing"}},"1850061345":{"lat":-33.8971424,"lon":151.2132737,"tags":{"bicycle":"designated","crossing":"traffic_signals","highway":"crossing"}},"1856453731":{"lat":-33.8971821,"lon":151.2130511,"tags":{"bicycle":"designated","button_operated":"yes","crossing":"traffic_signals","crossing:markings":"dashes","highway":"crossing"}},"1937891983":{"lat":-33.8921832,"lon":151.2497949,"tags":{"button_operated":"yes","check_date:crossing":"2021-06-03","crossing":"traffic_signals","highway":"crossing","traffic_signals:sound":"yes","traffic_signals:vibration":"yes"}},"1941652154":{"lat":-33.8808631,"lon":151.2170418,"tags":{"bicycle":"yes","crossing":"traffic_signals","crossing_ref":"toucan","highway":"crossing"}},"1941652248":{"lat":-33.8923805,"lon":151.2005008,"tags":{"bicycle":"designated","crossing":"traffic_signals","highway":"crossing"}},"1941652256":{"lat":-33.8929062,"lon":151.205436,"tags":{"crossing":"traffic_signals","crossing_ref":"pelican","highway":"crossing"}},"1941652258":{"lat":-33.8929754,"lon":151.2053307,"tags":{"crossing":"traffic_signals","crossing:island":"no","crossing_ref":"pelican","highway":"crossing"}},"1941652259":{"lat":-33.8930026,"lon":151.2055259,"tags":{"crossing":"traffic_signals","crossing:island":"no","crossing_ref":"pelican","highway":"crossing"}},"1941652261":{"lat":-33.8930764,"lon":151.2054017,"tags":{"bicycle":"yes","crossing":"traffic_signals","crossing:island":"no","crossing_ref":"toucan","highway":"crossing"}},"1941652275":{"lat":-33.8931508,"lon":151.207357,"tags":{"bicycle":"yes","crossing":"traffic_signals","crossing_ref":"pelican","highway":"crossing"}},"1941652279":{"lat":-33.8932208,"lon":151.2071552,"tags":{"crossing":"traffic_signals","crossing_ref":"pelican","highway":"crossing"}},"2039208753":{"lat":-33.8824647,"lon":151.2076551,"tags":{"button_operated":"yes","crossing":"traffic_signals","highway":"crossing","tactile_paving":"no","traffic_signals:sound":"yes","traffic_signals:vibration":"yes"}},"2039208993":{"lat":-33.9121281,"lon":151.1191599,"tags":{"crossing":"traffic_signals","highway":"crossing"}},"2053901575":{"lat":-34.927349,"lon":138.5937988,"tags":{"crossing":"traffic_signals","highway":"crossing"}},"2126206547":{"lat":-33.8917588,"lon":151.2007185,"tags":{"bicycle":"yes","button_operated":"yes","crossing":"traffic_signals","highway":"crossing","tactile_paving":"no","traffic_signals:sound":"yes","traffic_signals:vibration":"yes"}},"2222389921":{"lat":-33.8911232,"lon":151.2532276,"tags":{"button_operated":"yes","crossing":"traffic_signals","highway":"crossing","supervised":"no","tactile_paving":"no","traffic_signals:sound":"yes","traffic_signals:vibration":"yes"}},"2295319533":{"lat":-33.8065559,"lon":150.9879913,"tags":{"crossing":"traffic_signals","highway":"crossing"}},"2355782699":{"lat":-33.8627544,"lon":151.0795672,"tags":{"crossing":"traffic_signals","highway":"crossing"}},"2371506890":{"lat":-33.9076875,"lon":151.1870598,"tags":{"barrier":"kerb","bicycle":"designated","crossing":"traffic_signals","foot":"designated","island":"no","kerb":"flush","kerb:height":"0","length":"17","pram":"yes","ramp":"both","ramp:length":"2","ramp:width":"1","ref":"3087","traffic_signals":"signal","wheelchair":"yes","width":"3"}},"2507975808":{"lat":-34.9241364,"lon":138.6038245,"tags":{"button_operated":"yes","crossing":"traffic_signals","highway":"traffic_signals","tactile_paving":"no","traffic_signals:direction":"forward","traffic_signals:sound":"yes","traffic_signals:vibration":"yes"}},"2664653661":{"lat":-33.831404,"lon":151.088246,"tags":{"button_operated":"yes","check_date:tactile_paving":"2023-01-22","crossing":"traffic_signals","highway":"crossing","tactile_paving":"no","traffic_signals:sound":"yes"}},"2708681807":{"lat":-33.8889524,"lon":151.2574613,"tags":{"button_operated":"yes","crossing":"traffic_signals","highway":"crossing","tactile_paving":"no","traffic_signals:sound":"yes","traffic_signals:vibration":"yes"}},"2741476575":{"lat":-34.928504,"lon":138.599224,"tags":{"button_operated":"yes","crossing":"traffic_signals","highway":"crossing","tactile_paving":"yes","traffic_signals:sound":"yes","traffic_signals:vibration":"yes"}},"2744090708":{"lat":-33.9154838,"lon":151.2405271,"tags":{"crossing":"traffic_signals","crossing:island":"no","crossing_ref":"zebra","highway":"crossing","source":"survey","tactile_paving":"no"}},"2830871834":{"lat":-33.9027849,"lon":151.2055193,"tags":{"bicycle":"designated","button_operated":"yes","crossing":"traffic_signals","crossing:island":"no","highway":"crossing","tactile_paving":"no","traffic_signals:sound":"yes","traffic_signals:vibration":"yes"}},"2999125455":{"lat":-33.8665011,"lon":151.2057739,"tags":{"crossing":"traffic_signals","highway":"crossing"}},"3072743463":{"lat":-33.8826802,"lon":151.2040257,"tags":{"button_operated":"yes","crossing":"traffic_signals","highway":"crossing","tactile_paving":"yes","traffic_signals:sound":"yes","traffic_signals:vibration":"yes"}},"3076210234":{"lat":-33.9046654,"lon":151.1389295,"tags":{"button_operated":"yes","crossing":"traffic_signals","crossing:island":"no","highway":"crossing","layer":"1","tactile_paving":"no","traffic_signals:sound":"yes","traffic_signals:vibration":"yes"}},"3420655053":{"lat":-33.9074831,"lon":151.1872399,"tags":{"highway":"crossing"}},"3500777435":{"lat":-33.8817601,"lon":151.2057478,"tags":{"crossing":"traffic_signals","crossing:island":"no","highway":"crossing","kerb":"lowered"}},"3508046073":{"lat":-33.9065164,"lon":151.1881602,"tags":{"button_operated":"yes","crossing":"traffic_signals","highway":"crossing"}},"3593631035":{"lat":-33.8688841,"lon":151.2082218,"tags":{"crossing":"traffic_signals","highway":"crossing"}},"3724300048":{"lat":-33.8768127,"lon":151.2107732,"tags":{"button_operated":"yes","crossing":"traffic_signals","highway":"crossing","ref":"0423","start_date":"1974-06-30","tactile_paving":"no","traffic_signals:countdown_green":"yes","traffic_signals:sound":"yes","traffic_signals:vibration":"no"}},"3874432684":{"lat":-33.9001181,"lon":151.2534509,"tags":{"crossing":"traffic_signals","highway":"crossing","surface":"asphalt"}},"3879238374":{"lat":-33.8843988,"lon":151.1946304,"tags":{"button_operated":"no","crossing":"traffic_signals","highway":"traffic_signals","tactile_paving":"yes","traffic_signals:direction":"forward","traffic_signals:sound":"yes","traffic_signals:vibration":"yes"}},"3908854789":{"lat":-33.9036878,"lon":151.2123906,"tags":{"crossing":"traffic_signals","highway":"crossing"}},"3908854803":{"lat":-33.9039359,"lon":151.2140121,"tags":{"crossing":"traffic_signals","highway":"crossing","tactile_paving":"no"}},"3910198799":{"lat":-33.8773739,"lon":151.2433795,"tags":{"highway":"traffic_signals","traffic_signals":"signal","traffic_signals:direction":"forward"}},"3924594159":{"lat":-33.8822156,"lon":151.2098595,"tags":{"crossing":"traffic_signals","highway":"crossing","traffic_signals:countdown_green":"yes"}},"3941504589":{"lat":-33.8202703,"lon":151.0037889,"tags":{"crossing":"traffic_signals","highway":"crossing"}},"3949699690":{"lat":-37.7955524,"lon":144.9789452,"tags":{"crossing":"traffic_signals","crossing:island":"no","highway":"crossing"}},"3984331289":{"lat":-33.8815873,"lon":151.2193423,"tags":{"crossing":"traffic_signals","highway":"crossing"}},"3984331291":{"lat":-33.8811694,"lon":151.2180348,"tags":{"crossing":"traffic_signals","highway":"crossing"}},"3985408643":{"lat":-33.8838562,"lon":151.2021431,"tags":{"crossing":"traffic_signals","highway":"crossing"}},"3985408647":{"lat":-33.8841079,"lon":151.2022859,"tags":{"crossing":"traffic_signals","highway":"crossing"}},"4054127218":{"lat":-33.8835985,"lon":151.2083123,"tags":{"button_operated":"yes","crossing":"traffic_signals","crossing:island":"no","highway":"crossing","tactile_paving":"yes","traffic_signals:vibration":"yes"}},"4054127224":{"lat":-33.8834931,"lon":151.2084684,"tags":{"button_operated":"yes","crossing":"traffic_signals","highway":"crossing","tactile_paving":"yes","traffic_signals:sound":"yes","traffic_signals:vibration":"yes"}},"4096609065":{"lat":-33.8776714,"lon":151.2132973,"tags":{"button_operated":"yes","crossing":"traffic_signals","highway":"crossing","ref":"0682","start_date":"1971-05-05","supervised":"no","tactile_paving":"no","traffic_signals:sound":"yes"}},"4127557446":{"lat":-33.8882404,"lon":151.1962521,"tags":{"bicycle":"no","button_operated":"yes","crossing":"traffic_signals","highway":"traffic_signals","ramp":"yes","ramp:stroller":"yes","ramp:wheelchair":"yes","supervised":"no","tactile_paving":"no","traffic_signals":"signal","traffic_signals:direction":"backward","traffic_signals:sound":"yes","traffic_signals:vibration":"yes"}},"4129260803":{"lat":-33.8887167,"lon":151.1988058,"tags":{"crossing":"traffic_signals","crossing:island":"no","highway":"crossing"}},"4277793304":{"lat":-33.8408062,"lon":151.2084852,"tags":{"button_operated":"yes","crossing":"traffic_signals","crossing:island":"no","highway":"crossing","source":"survey","source:position":"NSW LPI Imagery"}},"6936407757":{"lat":-33.86874,"lon":151.2070731,"tags":{"crossing":"traffic_signals","highway":"crossing"}},"10927817004":{"lat":-33.8685943,"lon":151.2060225,"tags":{"crossing":"traffic_signals","highway":"crossing"}},"10927835708":{"lat":-33.867779,"lon":151.2059261,"tags":{"crossing":"traffic_signals","crossing:scramble":"yes","highway":"crossing"}},"10927835707":{"lat":-33.8676965,"lon":151.2057893,"tags":{"button_operated":"no","crossing":"traffic_signals","crossing:scramble":"yes","highway":"crossing","kerb":"lowered","tactile_paving":"yes","traffic_signals:sound":"no"}},"7550999255":{"lat":-33.8892309,"lon":151.2028761,"tags":{"bicycle":"designated","button_operated":"yes","crossing":"traffic_signals","highway":"crossing","supervised":"no","traffic_signals:sound":"yes"}},"10935500573":{"lat":-33.8650712,"lon":151.2057484,"tags":{"button_operated":"yes","crossing":"traffic_signals","highway":"crossing","kerb":"lowered","tactile_paving":"no","traffic_signals:sound":"yes","traffic_signals:vibration":"yes"}},"10935500574":{"lat":-33.8651582,"lon":151.2056377,"tags":{"button_operated":"yes","crossing":"traffic_signals","highway":"crossing","kerb":"lowered","tactile_paving":"no","traffic_signals:sound":"yes","traffic_signals:vibration":"yes"}},"10188047947":{"lat":-33.8651265,"lon":151.2049459,"tags":{"crossing":"traffic_signals","highway":"crossing"}},"10936393450":{"lat":-33.8732323,"lon":151.2092827,"tags":{"button_operated":"yes","crossing":"traffic_signals","crossing:island":"no","highway":"crossing","tactile_paving":"yes","traffic_signals:sound":"yes","traffic_signals:vibration":"yes"}},"5624232626":{"lat":-33.878363,"lon":151.2091184,"tags":{"button_operated":"yes","crossing":"traffic_signals","crossing:island":"yes","highway":"crossing","tactile_paving":"no","traffic_signals:sound":"yes","traffic_signals:vibration":"yes"}},"9309893760":{"lat":-33.8802328,"lon":151.2084026,"tags":{"crossing":"traffic_signals","highway":"crossing","tactile_paving":"yes"}},"10216883997":{"lat":-33.8802748,"lon":151.2082664,"tags":{"crossing":"traffic_signals","highway":"crossing"}},"10538888234":{"lat":-33.8737018,"lon":151.2125047,"tags":{"crossing:island":"no"}},"9936426580":{"lat":-33.8767241,"lon":151.2094735,"tags":{"highway":"traffic_signals"}},"10941406244":{"lat":-33.8744783,"lon":151.2181076,"tags":{"crossing":"traffic_signals","highway":"crossing"}},"7048217086":{"lat":-33.8817188,"lon":151.2060211,"tags":{"button_operated":"yes","crossing":"traffic_signals","highway":"crossing","tactile_paving":"yes","traffic_signals:sound":"yes"}},"10223437838":{"lat":-33.8773516,"lon":151.2033642,"tags":{"crossing":"traffic_signals","highway":"crossing"}},"10948221310":{"lat":-33.8849849,"lon":151.2127227,"tags":{"crossing":"traffic_signals","crossing:island":"no","highway":"crossing","tactile_paving":"yes"}},"10213854308":{"lat":-33.884907,"lon":151.2126363,"tags":{"crossing":"traffic_signals","highway":"crossing"}},"5855284511":{"lat":-33.8840273,"lon":151.2097542,"tags":{"button_operated":"yes","crossing":"traffic_signals","highway":"crossing","ref":"4830","tactile_paving":"yes","traffic_signals:countdown_green":"yes","traffic_signals:sound":"yes","traffic_signals:vibration":"yes"}},"10950117061":{"lat":-33.8652641,"lon":151.1720717,"tags":{"crossing":"traffic_signals","highway":"crossing"}},"5386675571":{"lat":-33.8337818,"lon":151.1444828,"tags":{"crossing":"traffic_signals","highway":"crossing"}},"8661385297":{"lat":-33.8271226,"lon":151.1882766,"tags":{"crossing":"traffic_signals","highway":"crossing"}},"7637096828":{"lat":-33.8726325,"lon":151.1746866,"tags":{"crossing":"traffic_signals","highway":"crossing"}},"10964543776":{"lat":-33.880306,"lon":151.1320814,"tags":{}},"10031352014":{"lat":-33.884787,"lon":151.1356873,"tags":{"crossing":"traffic_signals","highway":"crossing"}},"10188082797":{"lat":-33.8635871,"lon":151.2090563,"tags":{"crossing":"traffic_signals","highway":"crossing"}},"10188082798":{"lat":-33.8636737,"lon":151.2089687,"tags":{"crossing":"traffic_signals","highway":"crossing"}},"10981819781":{"lat":-33.8852219,"lon":151.2141135,"tags":{}},"10188082788":{"lat":-33.863601,"lon":151.2088526,"tags":{"crossing":"traffic_signals","highway":"crossing"}},"5663268549":{"lat":-33.9056182,"lon":151.2017742,"tags":{"crossing":"traffic_signals","highway":"crossing"}},"8519344335":{"lat":-33.9056693,"lon":151.2020802,"tags":{"crossing":"traffic_signals","highway":"crossing"}},"7895181247":{"lat":-33.9054037,"lon":151.202802,"tags":{"button_operated":"yes","crossing":"traffic_signals","crossing:island":"no","highway":"crossing"}},"9991792458":{"lat":-33.9041799,"lon":151.2011269,"tags":{"crossing":"traffic_signals","highway":"crossing"}},"8954172812":{"lat":-33.9040162,"lon":151.2012205,"tags":{"highway":"traffic_signals","traffic_signals":"signal","traffic_signals:direction":"forward"}},"8954151372":{"lat":-33.9035708,"lon":151.2021681,"tags":{"crossing":"traffic_signals","highway":"traffic_signals","traffic_signals:direction":"backward"}},"5382815755":{"lat":-33.8920066,"lon":151.2169604,"tags":{"crossing":"traffic_signals","highway":"crossing"}},"11029534306":{"lat":-33.9156976,"lon":151.194955,"tags":{"crossing":"traffic_signals","highway":"crossing"}},"7764047943":{"lat":-33.8790399,"lon":151.2377566,"tags":{"crossing":"traffic_signals","crossing:island":"yes","highway":"crossing"}},"10316095778":{"lat":-33.9115622,"lon":151.1776733,"tags":{"crossing":"traffic_signals","crossing:island":"no","crossing:markings":"dashes","highway":"crossing"}},"9301941935":{"lat":-33.8793334,"lon":151.2153187,"tags":{"button_operated":"yes","crossing":"traffic_signals","crossing:island":"no","highway":"crossing","tactile_paving":"no","traffic_signals:sound":"yes","traffic_signals:vibration":"yes"}},"5152914831":{"lat":-33.8793847,"lon":151.2151844,"tags":{"button_operated":"yes","crossing":"traffic_signals","crossing:island":"no","highway":"crossing","tactile_paving":"no","traffic_signals:sound":"yes","traffic_signals:vibration":"yes"}},"9742287668":{"lat":-33.8949729,"lon":151.1981571,"tags":{"crossing":"traffic_signals","highway":"crossing"}},"9742287653":{"lat":-33.8950311,"lon":151.198233,"tags":{"crossing":"traffic_signals","highway":"crossing"}},"7745910887":{"lat":-33.8461918,"lon":151.2127406,"tags":{"button_operated":"yes","crossing":"traffic_signals","crossing:island":"no","highway":"crossing"}},"8555690205":{"lat":-33.8853032,"lon":151.2028034,"tags":{"crossing":"traffic_signals","highway":"crossing"}},"6124407012":{"lat":-33.8894733,"lon":151.204647,"tags":{"button_operated":"yes","crossing":"traffic_signals","crossing:island":"no","highway":"crossing"}},"11079698224":{"lat":-33.8925597,"lon":151.2022816,"tags":{"button_operated":"yes","crossing":"traffic_signals","crossing:island":"no","crossing:markings":"lines","highway":"crossing","traffic_signals:sound":"yes"}},"9143672635":{"lat":-33.8876463,"lon":151.206518,"tags":{"crossing":"traffic_signals","highway":"crossing","tactile_paving":"no"}},"6125623581":{"lat":-33.8927889,"lon":151.204013,"tags":{"crossing":"traffic_signals","highway":"crossing"}},"6125623573":{"lat":-33.8926976,"lon":151.2039264,"tags":{"crossing":"traffic_signals","highway":"crossing"}},"6125623576":{"lat":-33.8927612,"lon":151.2038175,"tags":{"crossing":"traffic_signals","highway":"crossing"}},"7895281000":{"lat":-33.8896634,"lon":151.2059875,"tags":{"crossing":"traffic_signals","crossing:island":"no","crossing:markings":"dashes","highway":"crossing"}},"8785329528":{"lat":-33.846142,"lon":151.2126348,"tags":{"button_operated":"yes","crossing":"traffic_signals","crossing:island":"no","crossing:markings":"lines","highway":"crossing"}},"8555690195":{"lat":-33.8889276,"lon":151.201548,"tags":{"button_operated":"yes","crossing":"traffic_signals","crossing:island":"yes","highway":"crossing"}},"8555690122":{"lat":-33.8890187,"lon":151.2014639,"tags":{"crossing":"traffic_signals","highway":"crossing"}},"5138818086":{"lat":-33.8891583,"lon":151.2014646,"tags":{"crossing":"traffic_signals","highway":"crossing"}},"6124421946":{"lat":-33.8916621,"lon":151.1997021,"tags":{"crossing":"traffic_signals","highway":"crossing"}},"6124414181":{"lat":-33.8918359,"lon":151.1997336,"tags":{"button_operated":"yes","crossing":"traffic_signals","highway":"crossing","tactile_paving":"no","traffic_signals:sound":"yes","traffic_signals:vibration":"yes"}},"11079698226":{"lat":-33.8926215,"lon":151.20216,"tags":{"button_operated":"yes","crossing":"traffic_signals","crossing:island":"no","crossing:markings":"lines","highway":"crossing","traffic_signals:sound":"yes"}},"6125623578":{"lat":-33.8928641,"lon":151.2038948,"tags":{"crossing":"traffic_signals","highway":"crossing"}},"11114229292":{"lat":-33.8805504,"lon":151.131979,"tags":{}},"11118198979":{"lat":-33.8989943,"lon":151.1990188,"tags":{"crossing":"traffic_signals","highway":"crossing"}},"11118198990":{"lat":-33.8988443,"lon":151.2000363,"tags":{"crossing":"traffic_signals","highway":"crossing"}},"9549245446":{"lat":-33.9027615,"lon":151.1957813,"tags":{"button_operated":"yes","crossing":"traffic_signals","crossing:markings":"dashes","highway":"crossing"}},"5321891690":{"lat":-33.8975689,"lon":151.1956662,"tags":{"button_operated":"yes","crossing":"traffic_signals","crossing:markings":"lines","highway":"crossing"}},"11061133999":{"lat":-33.8964927,"lon":151.2086913,"tags":{"crossing":"traffic_signals","crossing:island":"no","crossing:markings":"lines","highway":"crossing"}},"11120965532":{"lat":-33.8962176,"lon":151.2066944,"tags":{"crossing":"traffic_signals","highway":"crossing"}},"10069883329":{"lat":-33.9178809,"lon":151.2260344,"tags":{"highway":"crossing"}},"11178676303":{"lat":-33.919542,"lon":151.2264276,"tags":{"crossing":"traffic_signals","highway":"crossing"}},"11178676301":{"lat":-33.9194518,"lon":151.2266341,"tags":{"crossing":"traffic_signals","highway":"crossing"}},"10069883330":{"lat":-33.9193232,"lon":151.226382,"tags":{"crossing":"traffic_signals","highway":"crossing"}},"8555690135":{"lat":-33.8890687,"lon":151.2017751,"tags":{"crossing":"traffic_signals","highway":"crossing"}},"8197826804":{"lat":-33.8842913,"lon":151.2002131,"tags":{"crossing":"traffic_signals","highway":"crossing"}},"8197950980":{"lat":-33.8814947,"lon":151.1971253,"tags":{"crossing":"traffic_signals","highway":"crossing"}},"9750617911":{"lat":-33.8845658,"lon":151.1928027,"tags":{"button_operated":"yes","crossing":"traffic_signals","highway":"crossing","tactile_paving":"no","traffic_signals:sound":"yes","traffic_signals:vibration":"yes"}},"9750617912":{"lat":-33.8844301,"lon":151.1929532,"tags":{"button_operated":"yes","crossing":"traffic_signals","crossing:island":"no","highway":"crossing","tactile_paving":"no","traffic_signals:sound":"yes","traffic_signals:vibration":"yes"}},"7682003764":{"lat":-33.9071391,"lon":151.1843955,"tags":{}},"11118872440":{"lat":-33.9008827,"lon":151.1933187,"tags":{"crossing":"traffic_signals","highway":"crossing"}},"10711742671":{"lat":-33.900136,"lon":151.1939882,"tags":{"button_operated":"yes","crossing":"traffic_signals","crossing:markings":"lines","highway":"crossing"}},"5372007848":{"lat":-33.9152195,"lon":151.2282557,"tags":{"crossing":"traffic_signals","highway":"traffic_signals","traffic_signals:direction":"forward"}},"7450810945":{"lat":-33.9076641,"lon":151.1872973,"tags":{"highway":"crossing"}},"6433622486":{"lat":-33.8899693,"lon":151.2171738,"tags":{"button_operated":"yes","crossing":"traffic_signals","crossing:light":"yes","highway":"crossing","traffic_signals:sound":"yes"}},"11182165061":{"lat":-33.8930686,"lon":151.2001347,"tags":{"button_operated":"yes","crossing":"traffic_signals","crossing:island":"no","crossing:markings":"dashes","highway":"crossing"}},"9750617909":{"lat":-33.884172,"lon":151.1985428,"tags":{"button_operated":"yes","crossing":"traffic_signals","highway":"crossing","tactile_paving":"no","traffic_signals:sound":"yes","traffic_signals:vibration":"yes"}},"11201668754":{"lat":-33.8842918,"lon":151.1950053,"tags":{"crossing":"traffic_signals","highway":"crossing"}},"8197826805":{"lat":-33.8841945,"lon":151.2002024,"tags":{"crossing":"traffic_signals","highway":"crossing"}},"8187106691":{"lat":-33.8816352,"lon":151.1972065,"tags":{"button_operated":"no","crossing":"traffic_signals","highway":"crossing","tactile_paving":"no","traffic_signals:sound":"yes","traffic_signals:vibration":"yes"}},"9643135048":{"lat":-33.8807549,"lon":151.2003033,"tags":{"button_operated":"no","crossing":"traffic_signals","crossing:island":"no","highway":"crossing","tactile_paving":"no","traffic_signals:sound":"yes","traffic_signals:vibration":"yes"}},"8674380253":{"lat":-33.8636202,"lon":151.0422818,"tags":{"crossing":"traffic_signals","crossing:island":"yes","highway":"crossing"}},"7176341376":{"lat":-35.2484057,"lon":149.1341132,"tags":{"railway":"crossing"}},"7176341374":{"lat":-35.2484035,"lon":149.1340733,"tags":{"railway":"crossing"}},"7176341377":{"lat":-35.2479794,"lon":149.1341441,"tags":{"railway":"crossing"}},"9312571275":{"lat":-33.8954617,"lon":151.2219415,"tags":{"bicycle":"designated","button_operated":"yes","crossing":"traffic_signals","highway":"crossing","traffic_signals:sound":"yes","traffic_signals:vibration":"yes"}},"4344242631":{"lat":-35.248154,"lon":149.1338619,"tags":{"button_operated":"yes","crossing":"traffic_signals","highway":"traffic_signals","tactile_paving":"yes","traffic_signals:sound":"yes"}},"8906766848":{"lat":-33.843423,"lon":151.0396147,"tags":{"crossing":"traffic_signals","highway":"crossing"}},"5031310098":{"lat":-33.8116336,"lon":151.1679327,"tags":{"button_operated":"yes","crossing":"traffic_signals","highway":"crossing","tactile_paving":"no","traffic_signals:sound":"yes","traffic_signals:vibration":"yes"}},"9608088738":{"lat":-33.8063094,"lon":150.9882298,"tags":{"crossing":"traffic_signals","highway":"crossing"}},"8627506403":{"lat":-33.8911093,"lon":151.1961678,"tags":{"crossing":"traffic_signals","highway":"crossing"}},"8627506402":{"lat":-33.8911544,"lon":151.1963474,"tags":{"crossing":"traffic_signals","highway":"crossing"}},"5371810409":{"lat":-33.9163709,"lon":151.2349851,"tags":{"crossing":"traffic_signals","highway":"crossing"}},"6085550746":{"lat":-33.9064413,"lon":151.2312786,"tags":{"crossing":"traffic_signals","highway":"crossing"}},"6817127091":{"lat":-33.8198341,"lon":151.0052843,"tags":{"crossing":"traffic_signals","highway":"crossing"}},"5382915308":{"lat":-33.9071482,"lon":151.2328502,"tags":{"crossing":"traffic_signals","highway":"crossing"}},"9472684828":{"lat":-33.8895361,"lon":151.1258854,"tags":{"crossing":"traffic_signals","highway":"crossing"}},"8946641819":{"lat":-33.8772263,"lon":151.244992,"tags":{"highway":"traffic_signals","traffic_signals":"signal","traffic_signals:direction":"backward"}},"11121006402":{"lat":-33.8903897,"lon":151.2090786,"tags":{"crossing":"traffic_signals","highway":"crossing"}},"6460873848":{"lat":-33.8905122,"lon":151.2091522,"tags":{"crossing":"traffic_signals","highway":"crossing"}},"6486953186":{"lat":-33.7921528,"lon":151.082803,"tags":{"crossing":"traffic_signals","highway":"crossing","traffic_signals":"signal","traffic_signals:direction":"backward"}},"8946641817":{"lat":-33.8772491,"lon":151.2444949,"tags":{"crossing":"traffic_signals","highway":"crossing","traffic_signals":"signal"}},"11118649553":{"lat":-33.9017821,"lon":151.2000364,"tags":{"crossing":"traffic_signals","highway":"crossing"}},"8203851685":{"lat":-33.869891,"lon":151.2120729,"tags":{"crossing":"traffic_signals","highway":"crossing"}},"8555690210":{"lat":-33.8864418,"lon":151.20201,"tags":{"button_operated":"yes","crossing":"traffic_signals","crossing:island":"no","highway":"crossing"}},"5425814870":{"lat":-33.7612152,"lon":151.2743647,"tags":{"highway":"traffic_signals"}},"7094883582":{"lat":-33.9163123,"lon":151.234997,"tags":{"crossing":"traffic_signals","highway":"crossing"}},"9156707576":{"lat":-33.9522361,"lon":151.1379535,"tags":{"crossing":"traffic_signals","highway":"crossing"}},"6633130833":{"lat":-33.8170671,"lon":151.0034888,"tags":{"button_operated":"yes","crossing":"traffic_signals","crossing:island":"no","highway":"crossing","tactile_paving":"yes","traffic_signals:sound":"yes","traffic_signals:vibration":"yes"}},"6633157686":{"lat":-33.8191283,"lon":151.0037537,"tags":{"crossing":"traffic_signals","highway":"crossing"}},"11228846983":{"lat":-33.826505,"lon":151.0046118,"tags":{"crossing":"traffic_signals","highway":"crossing"}},"11228846978":{"lat":-33.827566,"lon":151.0046519,"tags":{"crossing":"traffic_signals","highway":"crossing"}},"11240711925":{"lat":-33.877451,"lon":151.2436034,"tags":{"crossing":"traffic_signals","highway":"crossing"}},"6124421945":{"lat":-33.8916261,"lon":151.1998573,"tags":{"crossing":"traffic_signals","highway":"crossing"}},"6310245196":{"lat":-34.9242234,"lon":138.6020518,"tags":{}},"9396462612":{"lat":-33.9000246,"lon":151.1857721,"tags":{"crossing":"traffic_signals","highway":"crossing"}},"6305526040":{"lat":-34.9273151,"lon":138.5996553,"tags":{"crossing":"traffic_signals","highway":"crossing"}},"11273443324":{"lat":-34.939403,"lon":138.6406172,"tags":{"crossing":"traffic_signals","crossing:markings":"no","highway":"crossing"}},"6124414177":{"lat":-33.8917742,"lon":151.1999103,"tags":{"crossing":"traffic_signals","highway":"crossing"}},"6307754568":{"lat":-34.9288088,"lon":138.5973393,"tags":{}},"7096066253":{"lat":-34.924092,"lon":138.6032153,"tags":{}},"10761317610":{"lat":-33.87567,"lon":151.2217315,"tags":{"crossing":"traffic_signals","highway":"crossing"}},"6307794224":{"lat":-34.9270409,"lon":138.6022292,"tags":{"crossing":"traffic_signals","highway":"crossing"}},"6315722376":{"lat":-34.9266761,"lon":138.6118358,"tags":{"button_operated":"yes","crossing":"traffic_signals","highway":"crossing","tactile_paving":"no","traffic_signals:sound":"yes","traffic_signals:vibration":"yes"}},"6307793632":{"lat":-34.9269765,"lon":138.605898,"tags":{"crossing":"traffic_signals","highway":"crossing"}},"6307789020":{"lat":-34.9284241,"lon":138.6007346,"tags":{"crossing":"traffic_signals","highway":"crossing"}},"10098266379":{"lat":-33.9004745,"lon":151.2535789,"tags":{"crossing":"traffic_signals","crossing:island":"no","highway":"crossing","tactile_paving":"no"}},"11370551888":{"lat":-33.8135643,"lon":151.1057737,"tags":{"crossing":"traffic_signals","highway":"crossing"}},"5177832551":{"lat":-33.9243758,"lon":151.1873653,"tags":{"crossing":"traffic_signals"}},"7676088854":{"lat":-33.8993251,"lon":151.2225783,"tags":{"button_operated":"yes","crossing":"traffic_signals","highway":"crossing","traffic_signals:sound":"yes","traffic_signals:vibration":"yes"}},"6420278068":{"lat":-33.8996404,"lon":151.2224556,"tags":{"button_operated":"yes","crossing":"traffic_signals","highway":"crossing","tactile_paving":"no","traffic_signals:sound":"yes","traffic_signals:vibration":"yes"}},"11129273613":{"lat":-33.9064065,"lon":151.1879913,"tags":{"crossing":"traffic_signals","highway":"crossing"}},"11129273615":{"lat":-33.9065339,"lon":151.1880325,"tags":{"crossing":"traffic_signals","highway":"crossing"}},"7450810913":{"lat":-33.907458,"lon":151.1870788,"tags":{"barrier":"kerb","bicycle":"designated","crossing":"traffic_signals","foot":"designated","island":"no","kerb":"flush","kerb:height":"0","length":"18","pram":"yes","ramp":"both","ramp:width":"2","ref":"3087","traffic_signals":"signal","wheelchair":"yes","width":"3"}},"7450810914":{"lat":-33.9074938,"lon":151.1873049,"tags":{"barrier":"kerb","bicycle":"designated","crossing":"traffic_signals","foot":"designated","island":"no","kerb":"flush","kerb:height":"0","length":"18","pram":"yes","ramp":"both","ramp:width":"2","ref":"3087","traffic_signals":"signal","wheelchair":"yes","width":"3"}},"10086082596":{"lat":-33.9080405,"lon":151.1896957,"tags":{"crossing":"traffic_signals","highway":"crossing"}},"10086082598":{"lat":-33.9079904,"lon":151.189834,"tags":{"crossing":"traffic_signals","highway":"crossing"}},"10086082608":{"lat":-33.9080699,"lon":151.1899208,"tags":{"crossing":"traffic_signals","highway":"crossing"}},"10086082607":{"lat":-33.9080469,"lon":151.1902927,"tags":{"crossing":"traffic_signals","highway":"crossing"}},"10086082603":{"lat":-33.9078145,"lon":151.1903375,"tags":{"crossing":"traffic_signals","highway":"crossing"}},"11129291637":{"lat":-33.9062872,"lon":151.1917726,"tags":{"crossing":"traffic_signals","highway":"crossing"}},"11129291639":{"lat":-33.906254,"lon":151.1919092,"tags":{"crossing":"traffic_signals","highway":"crossing"}},"11129291646":{"lat":-33.9061142,"lon":151.1916935,"tags":{"crossing":"traffic_signals","highway":"crossing"}},"11129291642":{"lat":-33.9060986,"lon":151.1918557,"tags":{"crossing":"traffic_signals","highway":"crossing"}},"11129291626":{"lat":-33.9045625,"lon":151.1934463,"tags":{"crossing":"traffic_signals","highway":"crossing"}},"11129291627":{"lat":-33.9045346,"lon":151.1934707,"tags":{"crossing":"traffic_signals","highway":"crossing"}},"11118649559":{"lat":-33.9028017,"lon":151.1959523,"tags":{"button_operated":"yes","crossing":"traffic_signals","crossing:markings":"dashes","highway":"crossing"}},"9549245447":{"lat":-33.9028856,"lon":151.1957656,"tags":{"button_operated":"yes","crossing":"traffic_signals","crossing:markings":"dashes","highway":"crossing"}},"11118872439":{"lat":-33.9008903,"lon":151.1932021,"tags":{"button_operated":"yes","crossing":"traffic_signals","crossing:markings":"dashes","highway":"crossing"}},"8530395935":{"lat":-33.9020443,"lon":151.1921604,"tags":{"crossing":"traffic_signals","crossing:island":"no","highway":"crossing"}},"8530395934":{"lat":-33.9019152,"lon":151.1921629,"tags":{"crossing":"traffic_signals","crossing:island":"no","highway":"crossing"}},"9302054559":{"lat":-33.881457,"lon":151.2190752,"tags":{"crossing":"traffic_signals","highway":"crossing"}},"9366987472":{"lat":-33.8921457,"lon":151.2498118,"tags":{}},"9706540333":{"lat":-33.8916157,"lon":151.2520747,"tags":{"button_operated":"yes","crossing":"traffic_signals","crossing:island":"no","highway":"crossing","tactile_paving":"no","traffic_signals:sound":"yes","traffic_signals:vibration":"yes"}},"9302054557":{"lat":-33.8814794,"lon":151.218964,"tags":{"crossing":"traffic_signals","highway":"crossing"}},"9302054577":{"lat":-33.8810649,"lon":151.2182089,"tags":{"crossing":"traffic_signals","highway":"crossing"}},"9302054580":{"lat":-33.8810984,"lon":151.2180775,"tags":{"crossing":"traffic_signals","highway":"crossing"}},"9302054581":{"lat":-33.8811733,"lon":151.2182411,"tags":{"crossing":"traffic_signals","highway":"crossing"}},"9762874781":{"lat":-33.8968192,"lon":151.1982796,"tags":{"crossing":"traffic_signals","highway":"crossing"}},"9762874783":{"lat":-33.8970163,"lon":151.1983505,"tags":{"crossing":"traffic_signals","highway":"crossing"}},"9780711486":{"lat":-33.8839749,"lon":151.2020621,"tags":{"button_operated":"yes","crossing":"traffic_signals","highway":"crossing","tactile_paving":"no","traffic_signals:sound":"yes","traffic_signals:vibration":"yes"}},"11120951764":{"lat":-33.9003886,"lon":151.2061463,"tags":{"crossing":"traffic_signals","highway":"crossing"}},"5321891691":{"lat":-33.8976013,"lon":151.1953319,"tags":{"crossing":"traffic_signals","highway":"crossing"}},"9539002829":{"lat":-33.8683547,"lon":151.1963617,"tags":{"crossing":"traffic_signals","crossing:island":"no","highway":"crossing"}},"8229426268":{"lat":-32.9259652,"lon":151.7569675,"tags":{"crossing":"traffic_signals","highway":"crossing"}},"6228690337":{"lat":-32.9263811,"lon":151.7812412,"tags":{"button_operated":"yes","crossing":"traffic_signals","highway":"crossing","ref":"4767","start_date":"2018-09-28","tactile_paving":"no","traffic_signals:sound":"yes","traffic_signals:vibration":"yes"}},"7013701211":{"lat":-32.9230559,"lon":151.7227422,"tags":{"crossing":"traffic_signals","highway":"crossing"}},"7450810946":{"lat":-33.9075599,"lon":151.1873197,"tags":{"highway":"crossing"}},"9762874789":{"lat":-33.8970034,"lon":151.1974242,"tags":{}},"9974772097":{"lat":-33.9296907,"lon":151.1947807,"tags":{"crossing":"traffic_signals","highway":"crossing"}},"8994665981":{"lat":-33.8961481,"lon":151.2510666,"tags":{"crossing":"traffic_signals","highway":"crossing","surface":"asphalt"}}}